STARLINK-36272          
1 68215U 26053J   26087.83335647 -.00149319  00000+0 -78947-3 0  9996
2 68215  97.2835 323.0311 0001430  91.2251 205.4770 15.80890626  2988
STARLINK-37014          
1 68216U 26053K   26087.58335648  .00145076  00000+0  74720-3 0  9999
2 68216  97.2835 322.7695 0001441  89.0608 230.1520 15.80769303  3057
STARLINK-37011          
1 68217U 26053L   26087.58335648  .00085790  00000+0  44472-3 0  9997
2 68217  97.2835 322.7717 0001591  92.6373 230.8448 15.80791591  3058
STARLINK-37108          
1 68218U 26053M   26087.58335648  .00059147  00000+0  30759-3 0  9998
2 68218  97.2838 322.7733 0001550  95.3902 232.3571 15.80804961  3053
STARLINK-37106          
1 68219U 26053N   26087.58335648  .00073540  00000+0  38200-3 0  9991
2 68219  97.2830 322.7751 0001171  93.5482 238.4858 15.80784209  3055
STARLINK-37030          
1 68220U 26053P   26087.58335648  .00052187  00000+0  27186-3 0  9998
2 68220  97.2825 322.7782 0001617  93.8663 246.7143 15.80791702  3059
STARLINK-37012          
1 68221U 26053Q   26087.58335648  .00123609  00000+0  63805-3 0  9995
2 68221  97.2822 322.7769 0001533  84.4202 251.8945 15.80778471  3059
STARLINK-37110          
1 68222U 26053R   26087.58335648  .00177584  00000+0  91237-3 0  9997
2 68222  97.2827 322.7802 0001368  88.6364 256.2297 15.80737307  3056
STARLINK-37025          
1 68223U 26053S   26087.58335648  .00102883  00000+0  53274-3 0  9997
2 68223  97.2825 322.7810 0001160  89.3800 259.7572 15.80767245  3055
STARLINK-36977          
1 68224U 26053T   26087.58335648  .00046952  00000+0  24469-3 0  9996
2 68224  97.2818 322.7825 0001231  74.3823 279.0116 15.80802758  2947
STARLINK-36960          
1 68225U 26053U   26087.58335648  .00084295  00000+0  43733-3 0  9994
2 68225  97.2805 322.7843 0001583  89.6625 268.0186 15.80777548  3037
STARLINK-37038          
1 68226U 26053V   26087.58335648  .00066209  00000+0  34443-3 0  9998
2 68226  97.2805 322.7878 0001496  94.1083 272.1389 15.80773932  3032
STARLINK-37083          
1 68227U 26053W   26087.58335648  .00173779  00000+0  89372-3 0  9991
2 68227  97.2805 322.7866 0001688  99.8542 262.1188 15.80724944  3052
STARLINK-37050          
1 68228U 26053X   26087.58335648  .00164630  00000+0  84504-3 0  9990
2 68228  97.2803 322.7906 0000663 113.8415 256.5886 15.80791639  3039
STARLINK-37081          
1 68229U 26053Y   26087.58335648 -.00059892  00000+0 -31373-3 0  9992
2 68229  97.2795 322.7944 0001505  96.4800 286.8202 15.80839584  3054
STARLINK-37100          
1 68230U 26053Z   26087.58335648 -.00039741  00000+0 -20744-3 0  9995
2 68230  97.2794 322.7911 0001935  80.7107 294.0389 15.80838742  3054
