[{"OBJECT_NAME":"STARLINK-36272","OBJECT_ID":"2026-053J","EPOCH":"2026-03-28T20:00:01.999008","MEAN_MOTION":15.80890626,"ECCENTRICITY":0.000143,"INCLINATION":97.2835,"RA_OF_ASC_NODE":323.0311,"ARG_OF_PERICENTER":91.2251,"MEAN_ANOMALY":205.477,"EPHEMERIS_TYPE":0,"CLASSIFICATION_TYPE":"U","NORAD_CAT_ID":68215,"ELEMENT_SET_NO":999,"REV_AT_EPOCH":298,"BSTAR":-0.00078947,"MEAN_MOTION_DOT":-0.00149319,"MEAN_MOTION_DDOT":0},{"OBJECT_NAME":"STARLINK-37014","OBJECT_ID":"2026-053K","EPOCH":"2026-03-28T14:00:01.999872","MEAN_MOTION":15.80769303,"ECCENTRICITY":0.00014419,"INCLINATION":97.2835,"RA_OF_ASC_NODE":322.7695,"ARG_OF_PERICENTER":89.0608,"MEAN_ANOMALY":230.152,"EPHEMERIS_TYPE":0,"CLASSIFICATION_TYPE":"U","NORAD_CAT_ID":68216,"ELEMENT_SET_NO":999,"REV_AT_EPOCH":305,"BSTAR":0.00074719513,"MEAN_MOTION_DOT":0.00145076,"MEAN_MOTION_DDOT":0},{"OBJECT_NAME":"STARLINK-37011","OBJECT_ID":"2026-053L","EPOCH":"2026-03-28T14:00:01.999872","MEAN_MOTION":15.80791591,"ECCENTRICITY":0.0001591,"INCLINATION":97.2835,"RA_OF_ASC_NODE":322.7717,"ARG_OF_PERICENTER":92.6373,"MEAN_ANOMALY":230.8448,"EPHEMERIS_TYPE":0,"CLASSIFICATION_TYPE":"U","NORAD_CAT_ID":68217,"ELEMENT_SET_NO":999,"REV_AT_EPOCH":305,"BSTAR":0.00044471921,"MEAN_MOTION_DOT":0.0008579,"MEAN_MOTION_DDOT":0},{"OBJECT_NAME":"STARLINK-37108","OBJECT_ID":"2026-053M","EPOCH":"2026-03-28T14:00:01.999872","MEAN_MOTION":15.80804961,"ECCENTRICITY":0.000155,"INCLINATION":97.2838,"RA_OF_ASC_NODE":322.7733,"ARG_OF_PERICENTER":95.3902,"MEAN_ANOMALY":232.3571,"EPHEMERIS_TYPE":0,"CLASSIFICATION_TYPE":"U","NORAD_CAT_ID":68218,"ELEMENT_SET_NO":999,"REV_AT_EPOCH":305,"BSTAR":0.00030758718,"MEAN_MOTION_DOT":0.00059147,"MEAN_MOTION_DDOT":0},{"OBJECT_NAME":"STARLINK-37106","OBJECT_ID":"2026-053N","EPOCH":"2026-03-28T14:00:01.999872","MEAN_MOTION":15.80784209,"ECCENTRICITY":0.0001171,"INCLINATION":97.283,"RA_OF_ASC_NODE":322.7751,"ARG_OF_PERICENTER":93.5482,"MEAN_ANOMALY":238.4858,"EPHEMERIS_TYPE":0,"CLASSIFICATION_TYPE":"U","NORAD_CAT_ID":68219,"ELEMENT_SET_NO":999,"REV_AT_EPOCH":305,"BSTAR":0.00038199647,"MEAN_MOTION_DOT":0.0007354,"MEAN_MOTION_DDOT":0},{"OBJECT_NAME":"STARLINK-37030","OBJECT_ID":"2026-053P","EPOCH":"2026-03-28T14:00:01.999872","MEAN_MOTION":15.80791702,"ECCENTRICITY":0.00016171,"INCLINATION":97.2825,"RA_OF_ASC_NODE":322.7782,"ARG_OF_PERICENTER":93.8663,"MEAN_ANOMALY":246.7143,"EPHEMERIS_TYPE":0,"CLASSIFICATION_TYPE":"U","NORAD_CAT_ID":68220,"ELEMENT_SET_NO":999,"REV_AT_EPOCH":305,"BSTAR":0.00027185726,"MEAN_MOTION_DOT":0.00052187,"MEAN_MOTION_DDOT":0},{"OBJECT_NAME":"STARLINK-37012","OBJECT_ID":"2026-053Q","EPOCH":"2026-03-28T14:00:01.999872","MEAN_MOTION":15.80778471,"ECCENTRICITY":0.00015335,"INCLINATION":97.2822,"RA_OF_ASC_NODE":322.7769,"ARG_OF_PERICENTER":84.4202,"MEAN_ANOMALY":251.8945,"EPHEMERIS_TYPE":0,"CLASSIFICATION_TYPE":"U","NORAD_CAT_ID":68221,"ELEMENT_SET_NO":999,"REV_AT_EPOCH":305,"BSTAR":0.00063804671,"MEAN_MOTION_DOT":0.00123609,"MEAN_MOTION_DDOT":0},{"OBJECT_NAME":"STARLINK-37110","OBJECT_ID":"2026-053R","EPOCH":"2026-03-28T14:00:01.999872","MEAN_MOTION":15.80737307,"ECCENTRICITY":0.00013689,"INCLINATION":97.2827,"RA_OF_ASC_NODE":322.7802,"ARG_OF_PERICENTER":88.6364,"MEAN_ANOMALY":256.2297,"EPHEMERIS_TYPE":0,"CLASSIFICATION_TYPE":"U","NORAD_CAT_ID":68222,"ELEMENT_SET_NO":999,"REV_AT_EPOCH":305,"BSTAR":0.00091236837,"MEAN_MOTION_DOT":0.00177584,"MEAN_MOTION_DDOT":0},{"OBJECT_NAME":"STARLINK-37025","OBJECT_ID":"2026-053S","EPOCH":"2026-03-28T14:00:01.999872","MEAN_MOTION":15.80767245,"ECCENTRICITY":0.00011608,"INCLINATION":97.2825,"RA_OF_ASC_NODE":322.781,"ARG_OF_PERICENTER":89.38,"MEAN_ANOMALY":259.7572,"EPHEMERIS_TYPE":0,"CLASSIFICATION_TYPE":"U","NORAD_CAT_ID":68223,"ELEMENT_SET_NO":999,"REV_AT_EPOCH":305,"BSTAR":0.00053273748,"MEAN_MOTION_DOT":0.00102883,"MEAN_MOTION_DDOT":0},{"OBJECT_NAME":"STARLINK-36977","OBJECT_ID":"2026-053T","EPOCH":"2026-03-28T14:00:01.999872","MEAN_MOTION":15.80802758,"ECCENTRICITY":0.00012317,"INCLINATION":97.2818,"RA_OF_ASC_NODE":322.7825,"ARG_OF_PERICENTER":74.3823,"MEAN_ANOMALY":279.0116,"EPHEMERIS_TYPE":0,"CLASSIFICATION_TYPE":"U","NORAD_CAT_ID":68224,"ELEMENT_SET_NO":999,"REV_AT_EPOCH":294,"BSTAR":0.00024468957,"MEAN_MOTION_DOT":0.00046952,"MEAN_MOTION_DDOT":0},{"OBJECT_NAME":"STARLINK-36960","OBJECT_ID":"2026-053U","EPOCH":"2026-03-28T14:00:01.999872","MEAN_MOTION":15.80777548,"ECCENTRICITY":0.00015834,"INCLINATION":97.2805,"RA_OF_ASC_NODE":322.7843,"ARG_OF_PERICENTER":89.6625,"MEAN_ANOMALY":268.0186,"EPHEMERIS_TYPE":0,"CLASSIFICATION_TYPE":"U","NORAD_CAT_ID":68225,"ELEMENT_SET_NO":999,"REV_AT_EPOCH":303,"BSTAR":0.00043733462,"MEAN_MOTION_DOT":0.00084295,"MEAN_MOTION_DDOT":0},{"OBJECT_NAME":"STARLINK-37038","OBJECT_ID":"2026-053V","EPOCH":"2026-03-28T14:00:01.999872","MEAN_MOTION":15.80773932,"ECCENTRICITY":0.00014965,"INCLINATION":97.2805,"RA_OF_ASC_NODE":322.7878,"ARG_OF_PERICENTER":94.1083,"MEAN_ANOMALY":272.1389,"EPHEMERIS_TYPE":0,"CLASSIFICATION_TYPE":"U","NORAD_CAT_ID":68226,"ELEMENT_SET_NO":999,"REV_AT_EPOCH":303,"BSTAR":0.00034443377,"MEAN_MOTION_DOT":0.00066209,"MEAN_MOTION_DDOT":0},{"OBJECT_NAME":"STARLINK-37083","OBJECT_ID":"2026-053W","EPOCH":"2026-03-28T14:00:01.999872","MEAN_MOTION":15.80724944,"ECCENTRICITY":0.00016887,"INCLINATION":97.2805,"RA_OF_ASC_NODE":322.7866,"ARG_OF_PERICENTER":99.8542,"MEAN_ANOMALY":262.1188,"EPHEMERIS_TYPE":0,"CLASSIFICATION_TYPE":"U","NORAD_CAT_ID":68227,"ELEMENT_SET_NO":999,"REV_AT_EPOCH":305,"BSTAR":0.00089371813,"MEAN_MOTION_DOT":0.00173779,"MEAN_MOTION_DDOT":0},{"OBJECT_NAME":"STARLINK-37050","OBJECT_ID":"2026-053X","EPOCH":"2026-03-28T14:00:01.999872","MEAN_MOTION":15.80791639,"ECCENTRICITY":6.632e-5,"INCLINATION":97.2803,"RA_OF_ASC_NODE":322.7906,"ARG_OF_PERICENTER":113.8415,"MEAN_ANOMALY":256.5886,"EPHEMERIS_TYPE":0,"CLASSIFICATION_TYPE":"U","NORAD_CAT_ID":68228,"ELEMENT_SET_NO":999,"REV_AT_EPOCH":303,"BSTAR":0.00084504456,"MEAN_MOTION_DOT":0.0016463,"MEAN_MOTION_DDOT":0},{"OBJECT_NAME":"STARLINK-37081","OBJECT_ID":"2026-053Y","EPOCH":"2026-03-28T14:00:01.999872","MEAN_MOTION":15.80839584,"ECCENTRICITY":0.00015056,"INCLINATION":97.2795,"RA_OF_ASC_NODE":322.7944,"ARG_OF_PERICENTER":96.48,"MEAN_ANOMALY":286.8202,"EPHEMERIS_TYPE":0,"CLASSIFICATION_TYPE":"U","NORAD_CAT_ID":68229,"ELEMENT_SET_NO":999,"REV_AT_EPOCH":305,"BSTAR":-0.00031373238,"MEAN_MOTION_DOT":-0.00059892,"MEAN_MOTION_DDOT":0},{"OBJECT_NAME":"STARLINK-37100","OBJECT_ID":"2026-053Z","EPOCH":"2026-03-28T14:00:01.999872","MEAN_MOTION":15.80838742,"ECCENTRICITY":0.00019354,"INCLINATION":97.2794,"RA_OF_ASC_NODE":322.7911,"ARG_OF_PERICENTER":80.7107,"MEAN_ANOMALY":294.0389,"EPHEMERIS_TYPE":0,"CLASSIFICATION_TYPE":"U","NORAD_CAT_ID":68230,"ELEMENT_SET_NO":999,"REV_AT_EPOCH":305,"BSTAR":-0.00020744375,"MEAN_MOTION_DOT":-0.00039741,"MEAN_MOTION_DDOT":0}]
